<?xml version="1.0" encoding="UTF-8"?>
<kml xmlns="http://www.opengis.net/kml/2.2" xmlns:gx="http://www.google.com/kml/ext/2.2" xmlns:kml="http://www.opengis.net/kml/2.2" xmlns:atom="http://www.w3.org/2005/Atom">
<Document id="11OLyjlx24gplWYQysLGAt6MpKvyaoVnn">
	<name>FTTH Collesalvetti</name>
	<StyleMap id="__managed_style_72F36AAE6441C0FD77D0">
		<Pair>
			<key>normal</key>
			<styleUrl>#__managed_style_72F36AAE6441C0FD77D0_normal</styleUrl>
		</Pair>
		<Pair>
			<key>highlight</key>
			<styleUrl>#__managed_style_72F36AAE6441C0FD77D0_highlight</styleUrl>
		</Pair>
	</StyleMap>
	<gx:CascadingStyle kml:id="__managed_style_2669678F2541C0FD77D1_highlight">
		<styleUrl>https://earth.google.com/balloon_components/base/1.1.0.0/card_template.kml#main</styleUrl>
		<Style>
			<IconStyle>
				<scale>1.2</scale>
				<Icon>
					<href>https://earth.google.com/earth/document/icon?color=1976d2&amp;id=2000&amp;scale=4</href>
				</Icon>
				<hotSpot x="64" y="128" xunits="pixels" yunits="insetPixels"/>
			</IconStyle>
			<LabelStyle>
			</LabelStyle>
			<LineStyle>
				<color>ff5053ef</color>
				<width>6</width>
			</LineStyle>
			<PolyStyle>
				<color>40ffffff</color>
			</PolyStyle>
			<BalloonStyle>
			</BalloonStyle>
		</Style>
	</gx:CascadingStyle>
	<gx:CascadingStyle kml:id="__managed_style_72F36AAE6441C0FD77D0_normal">
		<Style>
			<IconStyle>
				<Icon>
					<href>https://earth.google.com/earth/document/icon?color=1976d2&amp;id=2000&amp;scale=4</href>
				</Icon>
				<hotSpot x="64" y="128" xunits="pixels" yunits="insetPixels"/>
			</IconStyle>
			<LabelStyle>
			</LabelStyle>
			<LineStyle>
				<color>ff5053ef</color>
				<width>4</width>
			</LineStyle>
			<PolyStyle>
				<color>40bdbdbd</color>
			</PolyStyle>
			<BalloonStyle>
			</BalloonStyle>
		</Style>
	</gx:CascadingStyle>
	<gx:CascadingStyle kml:id="__managed_style_1E96C0AD7141C0FD77D1_highlight">
		<Style>
			<IconStyle>
				<scale>1.2</scale>
				<Icon>
					<href>https://earth.google.com/earth/document/icon?color=1976d2&amp;id=2000&amp;scale=4</href>
				</Icon>
				<hotSpot x="64" y="128" xunits="pixels" yunits="insetPixels"/>
			</IconStyle>
			<LabelStyle>
			</LabelStyle>
			<LineStyle>
				<color>ff5053ef</color>
				<width>6</width>
			</LineStyle>
			<PolyStyle>
				<color>405053ef</color>
			</PolyStyle>
			<BalloonStyle>
			</BalloonStyle>
		</Style>
	</gx:CascadingStyle>
	<gx:CascadingStyle kml:id="__managed_style_1E96C0AD7141C0FD77D1_normal">
		<Style>
			<IconStyle>
				<Icon>
					<href>https://earth.google.com/earth/document/icon?color=1976d2&amp;id=2000&amp;scale=4</href>
				</Icon>
				<hotSpot x="64" y="128" xunits="pixels" yunits="insetPixels"/>
			</IconStyle>
			<LabelStyle>
			</LabelStyle>
			<LineStyle>
				<color>ff5053ef</color>
				<width>4</width>
			</LineStyle>
			<PolyStyle>
				<color>405053ef</color>
			</PolyStyle>
			<BalloonStyle>
			</BalloonStyle>
		</Style>
	</gx:CascadingStyle>
	<StyleMap id="__managed_style_1E96C0AD7141C0FD77D1">
		<Pair>
			<key>normal</key>
			<styleUrl>#__managed_style_1E96C0AD7141C0FD77D1_normal</styleUrl>
		</Pair>
		<Pair>
			<key>highlight</key>
			<styleUrl>#__managed_style_1E96C0AD7141C0FD77D1_highlight</styleUrl>
		</Pair>
	</StyleMap>
	<gx:CascadingStyle kml:id="__managed_style_0480488EB441C0FD77D0_normal">
		<Style>
			<IconStyle>
				<Icon>
					<href>https://earth.google.com/earth/document/icon?color=1976d2&amp;id=2000&amp;scale=4</href>
				</Icon>
				<hotSpot x="64" y="128" xunits="pixels" yunits="insetPixels"/>
			</IconStyle>
			<LabelStyle>
			</LabelStyle>
			<LineStyle>
				<color>fff5a542</color>
				<width>4</width>
			</LineStyle>
			<PolyStyle>
				<color>40bdbdbd</color>
			</PolyStyle>
			<BalloonStyle>
			</BalloonStyle>
		</Style>
	</gx:CascadingStyle>
	<gx:CascadingStyle kml:id="__managed_style_3B8E37096A41C0FD77D1_highlight">
		<styleUrl>https://earth.google.com/balloon_components/base/1.1.0.0/card_template.kml#main</styleUrl>
		<Style>
			<IconStyle>
				<scale>1.2</scale>
				<Icon>
					<href>https://earth.google.com/earth/document/icon?color=1976d2&amp;id=2000&amp;scale=4</href>
				</Icon>
				<hotSpot x="64" y="128" xunits="pixels" yunits="insetPixels"/>
			</IconStyle>
			<LabelStyle>
			</LabelStyle>
			<LineStyle>
				<color>ffd27619</color>
				<width>6</width>
			</LineStyle>
			<PolyStyle>
				<color>40ffffff</color>
			</PolyStyle>
			<BalloonStyle>
			</BalloonStyle>
		</Style>
	</gx:CascadingStyle>
	<gx:CascadingStyle kml:id="__managed_style_488E8CE88C41C0FD77D0_highlight">
		<Style>
			<IconStyle>
				<scale>1.2</scale>
				<Icon>
					<href>https://earth.google.com/earth/document/icon?color=1976d2&amp;id=2000&amp;scale=4</href>
				</Icon>
				<hotSpot x="64" y="128" xunits="pixels" yunits="insetPixels"/>
			</IconStyle>
			<LabelStyle>
			</LabelStyle>
			<LineStyle>
				<color>ff6abb66</color>
				<width>6</width>
			</LineStyle>
			<PolyStyle>
				<color>40ffffff</color>
			</PolyStyle>
			<BalloonStyle>
			</BalloonStyle>
		</Style>
	</gx:CascadingStyle>
	<gx:CascadingStyle kml:id="__managed_style_1BC4D104FA41C0FD77D0_highlight">
		<Style>
			<IconStyle>
				<scale>1.8</scale>
				<Icon>
					<href>https://earth.google.com/earth/document/icon?color=d32f2f&amp;id=2176&amp;scale=4</href>
				</Icon>
				<hotSpot x="64" y="128" xunits="pixels" yunits="insetPixels"/>
			</IconStyle>
			<LabelStyle>
			</LabelStyle>
			<LineStyle>
				<color>ff2dc0fb</color>
				<width>6</width>
			</LineStyle>
			<PolyStyle>
				<color>40ffffff</color>
			</PolyStyle>
			<BalloonStyle>
			</BalloonStyle>
		</Style>
	</gx:CascadingStyle>
	<gx:CascadingStyle kml:id="__managed_style_488E8CE88C41C0FD77D0_normal">
		<Style>
			<IconStyle>
				<Icon>
					<href>https://earth.google.com/earth/document/icon?color=1976d2&amp;id=2000&amp;scale=4</href>
				</Icon>
				<hotSpot x="64" y="128" xunits="pixels" yunits="insetPixels"/>
			</IconStyle>
			<LabelStyle>
			</LabelStyle>
			<LineStyle>
				<color>ff6abb66</color>
				<width>4</width>
			</LineStyle>
			<PolyStyle>
				<color>40ffffff</color>
			</PolyStyle>
			<BalloonStyle>
			</BalloonStyle>
		</Style>
	</gx:CascadingStyle>
	<StyleMap id="__managed_style_542F922DD441C0FD77D0">
		<Pair>
			<key>normal</key>
			<styleUrl>#__managed_style_542F922DD441C0FD77D0_normal</styleUrl>
		</Pair>
		<Pair>
			<key>highlight</key>
			<styleUrl>#__managed_style_542F922DD441C0FD77D0_highlight</styleUrl>
		</Pair>
	</StyleMap>
	<StyleMap id="__managed_style_2669678F2541C0FD77D1">
		<Pair>
			<key>normal</key>
			<styleUrl>#__managed_style_2669678F2541C0FD77D1_normal</styleUrl>
		</Pair>
		<Pair>
			<key>highlight</key>
			<styleUrl>#__managed_style_2669678F2541C0FD77D1_highlight</styleUrl>
		</Pair>
	</StyleMap>
	<StyleMap id="__managed_style_488E8CE88C41C0FD77D0">
		<Pair>
			<key>normal</key>
			<styleUrl>#__managed_style_488E8CE88C41C0FD77D0_normal</styleUrl>
		</Pair>
		<Pair>
			<key>highlight</key>
			<styleUrl>#__managed_style_488E8CE88C41C0FD77D0_highlight</styleUrl>
		</Pair>
	</StyleMap>
	<gx:CascadingStyle kml:id="__managed_style_0A6B0919F641C0FD77D1_normal">
		<Style>
			<IconStyle>
				<Icon>
					<href>https://earth.google.com/earth/document/icon?color=388e3c&amp;id=2000&amp;scale=4</href>
				</Icon>
				<hotSpot x="64" y="128" xunits="pixels" yunits="insetPixels"/>
			</IconStyle>
			<LabelStyle>
			</LabelStyle>
			<LineStyle>
				<color>ff2dc0fb</color>
				<width>4</width>
			</LineStyle>
			<PolyStyle>
				<color>40ffffff</color>
			</PolyStyle>
			<BalloonStyle>
			</BalloonStyle>
		</Style>
	</gx:CascadingStyle>
	<StyleMap id="__managed_style_0480488EB441C0FD77D0">
		<Pair>
			<key>normal</key>
			<styleUrl>#__managed_style_0480488EB441C0FD77D0_normal</styleUrl>
		</Pair>
		<Pair>
			<key>highlight</key>
			<styleUrl>#__managed_style_0480488EB441C0FD77D0_highlight</styleUrl>
		</Pair>
	</StyleMap>
	<gx:CascadingStyle kml:id="__managed_style_542F922DD441C0FD77D0_normal">
		<Style>
			<IconStyle>
				<Icon>
					<href>https://earth.google.com/earth/document/icon?color=1976d2&amp;id=2202&amp;scale=4</href>
				</Icon>
				<hotSpot x="64" y="128" xunits="pixels" yunits="insetPixels"/>
			</IconStyle>
			<LabelStyle>
			</LabelStyle>
			<LineStyle>
				<color>ff2dc0fb</color>
				<width>4</width>
			</LineStyle>
			<PolyStyle>
				<color>40ffffff</color>
			</PolyStyle>
			<BalloonStyle>
			</BalloonStyle>
		</Style>
	</gx:CascadingStyle>
	<gx:CascadingStyle kml:id="__managed_style_0DCCD72A2941C0FD77CE_normal">
		<styleUrl>https://earth.google.com/balloon_components/base/1.1.0.0/card_template.kml#main</styleUrl>
		<Style>
			<IconStyle>
				<Icon>
					<href>https://earth.google.com/earth/document/icon?color=1976d2&amp;id=2000&amp;scale=4</href>
				</Icon>
				<hotSpot x="64" y="128" xunits="pixels" yunits="insetPixels"/>
			</IconStyle>
			<LabelStyle>
			</LabelStyle>
			<LineStyle>
				<color>ff2dc0fb</color>
				<width>4</width>
			</LineStyle>
			<PolyStyle>
				<color>40ffffff</color>
			</PolyStyle>
			<BalloonStyle>
			</BalloonStyle>
		</Style>
	</gx:CascadingStyle>
	<StyleMap id="__managed_style_0DCCD72A2941C0FD77CE">
		<Pair>
			<key>normal</key>
			<styleUrl>#__managed_style_0DCCD72A2941C0FD77CE_normal</styleUrl>
		</Pair>
		<Pair>
			<key>highlight</key>
			<styleUrl>#__managed_style_0DCCD72A2941C0FD77CE_highlight</styleUrl>
		</Pair>
	</StyleMap>
	<StyleMap id="__managed_style_1BC4D104FA41C0FD77D0">
		<Pair>
			<key>normal</key>
			<styleUrl>#__managed_style_1BC4D104FA41C0FD77D0_normal</styleUrl>
		</Pair>
		<Pair>
			<key>highlight</key>
			<styleUrl>#__managed_style_1BC4D104FA41C0FD77D0_highlight</styleUrl>
		</Pair>
	</StyleMap>
	<gx:CascadingStyle kml:id="__managed_style_3702FB7ABE41C0FD77D0_highlight">
		<Style>
			<IconStyle>
				<scale>1.2</scale>
				<Icon>
					<href>https://earth.google.com/earth/document/icon?color=1976d2&amp;id=2000&amp;scale=4</href>
				</Icon>
				<hotSpot x="64" y="128" xunits="pixels" yunits="insetPixels"/>
			</IconStyle>
			<LabelStyle>
			</LabelStyle>
			<LineStyle>
				<color>ff2dc0fb</color>
				<width>6</width>
			</LineStyle>
			<PolyStyle>
				<color>40ffffff</color>
			</PolyStyle>
			<BalloonStyle>
			</BalloonStyle>
		</Style>
	</gx:CascadingStyle>
	<gx:CascadingStyle kml:id="__managed_style_2B1139CF4A41C0FD77D0_highlight">
		<Style>
			<IconStyle>
				<scale>1.2</scale>
				<Icon>
					<href>https://earth.google.com/earth/document/icon?color=1976d2&amp;id=2000&amp;scale=4</href>
				</Icon>
				<hotSpot x="64" y="128" xunits="pixels" yunits="insetPixels"/>
			</IconStyle>
			<LabelStyle>
			</LabelStyle>
			<LineStyle>
				<color>ff2dc0fb</color>
				<width>6</width>
			</LineStyle>
			<PolyStyle>
				<color>40ffffff</color>
			</PolyStyle>
			<BalloonStyle>
			</BalloonStyle>
		</Style>
	</gx:CascadingStyle>
	<gx:CascadingStyle kml:id="__managed_style_650404BC3941C0FD77D0_highlight">
		<Style>
			<IconStyle>
				<scale>1.8</scale>
				<Icon>
					<href>https://earth.google.com/earth/document/icon?color=d32f2f&amp;id=2176&amp;scale=4</href>
				</Icon>
				<hotSpot x="64" y="128" xunits="pixels" yunits="insetPixels"/>
			</IconStyle>
			<LabelStyle>
			</LabelStyle>
			<LineStyle>
				<color>ff2dc0fb</color>
				<width>6</width>
			</LineStyle>
			<PolyStyle>
				<color>40ffffff</color>
			</PolyStyle>
			<BalloonStyle>
			</BalloonStyle>
		</Style>
	</gx:CascadingStyle>
	<gx:CascadingStyle kml:id="__managed_style_72F36AAE6441C0FD77D0_highlight">
		<Style>
			<IconStyle>
				<scale>1.2</scale>
				<Icon>
					<href>https://earth.google.com/earth/document/icon?color=1976d2&amp;id=2000&amp;scale=4</href>
				</Icon>
				<hotSpot x="64" y="128" xunits="pixels" yunits="insetPixels"/>
			</IconStyle>
			<LabelStyle>
			</LabelStyle>
			<LineStyle>
				<color>ff5053ef</color>
				<width>6</width>
			</LineStyle>
			<PolyStyle>
				<color>40bdbdbd</color>
			</PolyStyle>
			<BalloonStyle>
			</BalloonStyle>
		</Style>
	</gx:CascadingStyle>
	<gx:CascadingStyle kml:id="__managed_style_3702FB7ABE41C0FD77D0_normal">
		<Style>
			<IconStyle>
				<Icon>
					<href>https://earth.google.com/earth/document/icon?color=1976d2&amp;id=2000&amp;scale=4</href>
				</Icon>
				<hotSpot x="64" y="128" xunits="pixels" yunits="insetPixels"/>
			</IconStyle>
			<LabelStyle>
			</LabelStyle>
			<LineStyle>
				<color>ff2dc0fb</color>
				<width>4</width>
			</LineStyle>
			<PolyStyle>
				<color>40ffffff</color>
			</PolyStyle>
			<BalloonStyle>
			</BalloonStyle>
		</Style>
	</gx:CascadingStyle>
	<gx:CascadingStyle kml:id="__managed_style_1BC4D104FA41C0FD77D0_normal">
		<Style>
			<IconStyle>
				<scale>1.5</scale>
				<Icon>
					<href>https://earth.google.com/earth/document/icon?color=d32f2f&amp;id=2176&amp;scale=4</href>
				</Icon>
				<hotSpot x="64" y="128" xunits="pixels" yunits="insetPixels"/>
			</IconStyle>
			<LabelStyle>
			</LabelStyle>
			<LineStyle>
				<color>ff2dc0fb</color>
				<width>4</width>
			</LineStyle>
			<PolyStyle>
				<color>40ffffff</color>
			</PolyStyle>
			<BalloonStyle>
			</BalloonStyle>
		</Style>
	</gx:CascadingStyle>
	<gx:CascadingStyle kml:id="__managed_style_0480488EB441C0FD77D0_highlight">
		<Style>
			<IconStyle>
				<scale>1.2</scale>
				<Icon>
					<href>https://earth.google.com/earth/document/icon?color=1976d2&amp;id=2000&amp;scale=4</href>
				</Icon>
				<hotSpot x="64" y="128" xunits="pixels" yunits="insetPixels"/>
			</IconStyle>
			<LabelStyle>
			</LabelStyle>
			<LineStyle>
				<color>fff5a542</color>
				<width>6</width>
			</LineStyle>
			<PolyStyle>
				<color>40bdbdbd</color>
			</PolyStyle>
			<BalloonStyle>
			</BalloonStyle>
		</Style>
	</gx:CascadingStyle>
	<StyleMap id="__managed_style_2B1139CF4A41C0FD77D0">
		<Pair>
			<key>normal</key>
			<styleUrl>#__managed_style_2B1139CF4A41C0FD77D0_normal</styleUrl>
		</Pair>
		<Pair>
			<key>highlight</key>
			<styleUrl>#__managed_style_2B1139CF4A41C0FD77D0_highlight</styleUrl>
		</Pair>
	</StyleMap>
	<gx:CascadingStyle kml:id="__managed_style_542F922DD441C0FD77D0_highlight">
		<Style>
			<IconStyle>
				<scale>1.2</scale>
				<Icon>
					<href>https://earth.google.com/earth/document/icon?color=1976d2&amp;id=2202&amp;scale=4</href>
				</Icon>
				<hotSpot x="64" y="128" xunits="pixels" yunits="insetPixels"/>
			</IconStyle>
			<LabelStyle>
			</LabelStyle>
			<LineStyle>
				<color>ff2dc0fb</color>
				<width>6</width>
			</LineStyle>
			<PolyStyle>
				<color>40ffffff</color>
			</PolyStyle>
			<BalloonStyle>
			</BalloonStyle>
		</Style>
	</gx:CascadingStyle>
	<StyleMap id="__managed_style_3702FB7ABE41C0FD77D0">
		<Pair>
			<key>normal</key>
			<styleUrl>#__managed_style_3702FB7ABE41C0FD77D0_normal</styleUrl>
		</Pair>
		<Pair>
			<key>highlight</key>
			<styleUrl>#__managed_style_3702FB7ABE41C0FD77D0_highlight</styleUrl>
		</Pair>
	</StyleMap>
	<StyleMap id="__managed_style_0A6B0919F641C0FD77D1">
		<Pair>
			<key>normal</key>
			<styleUrl>#__managed_style_0A6B0919F641C0FD77D1_normal</styleUrl>
		</Pair>
		<Pair>
			<key>highlight</key>
			<styleUrl>#__managed_style_0A6B0919F641C0FD77D1_highlight</styleUrl>
		</Pair>
	</StyleMap>
	<StyleMap id="__managed_style_3B8E37096A41C0FD77D1">
		<Pair>
			<key>normal</key>
			<styleUrl>#__managed_style_3B8E37096A41C0FD77D1_normal</styleUrl>
		</Pair>
		<Pair>
			<key>highlight</key>
			<styleUrl>#__managed_style_3B8E37096A41C0FD77D1_highlight</styleUrl>
		</Pair>
	</StyleMap>
	<gx:CascadingStyle kml:id="__managed_style_2B1139CF4A41C0FD77D0_normal">
		<Style>
			<IconStyle>
				<Icon>
					<href>https://earth.google.com/earth/document/icon?color=1976d2&amp;id=2000&amp;scale=4</href>
				</Icon>
				<hotSpot x="64" y="128" xunits="pixels" yunits="insetPixels"/>
			</IconStyle>
			<LabelStyle>
			</LabelStyle>
			<LineStyle>
				<color>ff2dc0fb</color>
				<width>4</width>
			</LineStyle>
			<PolyStyle>
				<color>40ffffff</color>
			</PolyStyle>
			<BalloonStyle>
			</BalloonStyle>
		</Style>
	</gx:CascadingStyle>
	<StyleMap id="__managed_style_650404BC3941C0FD77D0">
		<Pair>
			<key>normal</key>
			<styleUrl>#__managed_style_650404BC3941C0FD77D0_normal</styleUrl>
		</Pair>
		<Pair>
			<key>highlight</key>
			<styleUrl>#__managed_style_650404BC3941C0FD77D0_highlight</styleUrl>
		</Pair>
	</StyleMap>
	<gx:CascadingStyle kml:id="__managed_style_0DCCD72A2941C0FD77CE_highlight">
		<styleUrl>https://earth.google.com/balloon_components/base/1.1.0.0/card_template.kml#main</styleUrl>
		<Style>
			<IconStyle>
				<scale>1.2</scale>
				<Icon>
					<href>https://earth.google.com/earth/document/icon?color=1976d2&amp;id=2000&amp;scale=4</href>
				</Icon>
				<hotSpot x="64" y="128" xunits="pixels" yunits="insetPixels"/>
			</IconStyle>
			<LabelStyle>
			</LabelStyle>
			<LineStyle>
				<color>ff2dc0fb</color>
				<width>6</width>
			</LineStyle>
			<PolyStyle>
				<color>40ffffff</color>
			</PolyStyle>
			<BalloonStyle>
			</BalloonStyle>
		</Style>
	</gx:CascadingStyle>
	<gx:CascadingStyle kml:id="__managed_style_3B8E37096A41C0FD77D1_normal">
		<styleUrl>https://earth.google.com/balloon_components/base/1.1.0.0/card_template.kml#main</styleUrl>
		<Style>
			<IconStyle>
				<Icon>
					<href>https://earth.google.com/earth/document/icon?color=1976d2&amp;id=2000&amp;scale=4</href>
				</Icon>
				<hotSpot x="64" y="128" xunits="pixels" yunits="insetPixels"/>
			</IconStyle>
			<LabelStyle>
			</LabelStyle>
			<LineStyle>
				<color>ffd27619</color>
				<width>4</width>
			</LineStyle>
			<PolyStyle>
				<color>40ffffff</color>
			</PolyStyle>
			<BalloonStyle>
			</BalloonStyle>
		</Style>
	</gx:CascadingStyle>
	<gx:CascadingStyle kml:id="__managed_style_650404BC3941C0FD77D0_normal">
		<Style>
			<IconStyle>
				<scale>1.5</scale>
				<Icon>
					<href>https://earth.google.com/earth/document/icon?color=d32f2f&amp;id=2176&amp;scale=4</href>
				</Icon>
				<hotSpot x="64" y="128" xunits="pixels" yunits="insetPixels"/>
			</IconStyle>
			<LabelStyle>
			</LabelStyle>
			<LineStyle>
				<color>ff2dc0fb</color>
				<width>4</width>
			</LineStyle>
			<PolyStyle>
				<color>40ffffff</color>
			</PolyStyle>
			<BalloonStyle>
			</BalloonStyle>
		</Style>
	</gx:CascadingStyle>
	<gx:CascadingStyle kml:id="__managed_style_2669678F2541C0FD77D1_normal">
		<styleUrl>https://earth.google.com/balloon_components/base/1.1.0.0/card_template.kml#main</styleUrl>
		<Style>
			<IconStyle>
				<Icon>
					<href>https://earth.google.com/earth/document/icon?color=1976d2&amp;id=2000&amp;scale=4</href>
				</Icon>
				<hotSpot x="64" y="128" xunits="pixels" yunits="insetPixels"/>
			</IconStyle>
			<LabelStyle>
			</LabelStyle>
			<LineStyle>
				<color>ff5053ef</color>
				<width>4</width>
			</LineStyle>
			<PolyStyle>
				<color>40ffffff</color>
			</PolyStyle>
			<BalloonStyle>
			</BalloonStyle>
		</Style>
	</gx:CascadingStyle>
	<gx:CascadingStyle kml:id="__managed_style_0A6B0919F641C0FD77D1_highlight">
		<Style>
			<IconStyle>
				<scale>1.2</scale>
				<Icon>
					<href>https://earth.google.com/earth/document/icon?color=388e3c&amp;id=2000&amp;scale=4</href>
				</Icon>
				<hotSpot x="64" y="128" xunits="pixels" yunits="insetPixels"/>
			</IconStyle>
			<LabelStyle>
			</LabelStyle>
			<LineStyle>
				<color>ff2dc0fb</color>
				<width>6</width>
			</LineStyle>
			<PolyStyle>
				<color>40ffffff</color>
			</PolyStyle>
			<BalloonStyle>
			</BalloonStyle>
		</Style>
	</gx:CascadingStyle>
	<Placemark id="0C11108026419D776229">
		<name>Cantiere 1 (14/09-02/10)</name>
		<LookAt>
			<longitude>10.47680708527168</longitude>
			<latitude>43.59572740710758</latitude>
			<altitude>25.22754371955038</altitude>
			<heading>0</heading>
			<tilt>0</tilt>
			<gx:fovy>35</gx:fovy>
			<range>1107.31602100961</range>
			<altitudeMode>absolute</altitudeMode>
		</LookAt>
		<styleUrl>#__managed_style_3702FB7ABE41C0FD77D0</styleUrl>
		<LineString>
			<coordinates>
				10.47337166524842,43.59135309052915,0 10.47396151389629,43.59389043523493,0 10.47509469419023,43.59386580591926,0 10.47527352212309,43.5937312595434,0 10.47535579786541,43.5938957256711,0 10.47519754276149,43.59393579005066,0 10.47490008397105,43.59546447402612,0 10.47533278120847,43.59565006199509,0 10.47611241804744,43.59569004663479,0 10.47736271978634,43.59557091475974,0 10.47681394517894,43.59637582531879,0 10.47686195680252,43.59647002521567,0 10.47839315903629,43.59662493819227,0 10.47831858536105,43.59709818318338,0 
			</coordinates>
		</LineString>
	</Placemark>
	<Placemark id="0D01C4A3D9419D77F4F8">
		<name>Cantiere 1 (14/09-02/10)</name>
		<LookAt>
			<longitude>10.47863529418074</longitude>
			<latitude>43.59408239535055</latitude>
			<altitude>13.76725729951326</altitude>
			<heading>0</heading>
			<tilt>0</tilt>
			<gx:fovy>35</gx:fovy>
			<range>1142.082605470059</range>
			<altitudeMode>absolute</altitudeMode>
		</LookAt>
		<styleUrl>#__managed_style_2B1139CF4A41C0FD77D0</styleUrl>
		<LineString>
			<coordinates>
				10.47737778236328,43.59555939930492,0 10.47828721614531,43.59461029435509,0 10.47842836852563,43.59406706800669,0 10.4787758989349,43.59358595663134,0 10.47935100393634,43.59310920518084,0 10.47935093571877,43.59306864562762,0 
			</coordinates>
		</LineString>
	</Placemark>
	<Placemark id="038A8E74E7419D783FA8">
		<name>C [01] ARL</name>
		<description><![CDATA[<div>Colonnina e-distribuzione<br></div><div>Apparato supplementare<br></div><div>Tombini Telecom e TIM vicini<br></div>]]></description>
		<LookAt>
			<longitude>10.47493201989935</longitude>
			<latitude>43.59553775040293</latitude>
			<altitude>14.29466866002045</altitude>
			<heading>66.68746798737725</heading>
			<tilt>27.78109241598673</tilt>
			<gx:fovy>35</gx:fovy>
			<range>85.87679516544085</range>
			<altitudeMode>absolute</altitudeMode>
		</LookAt>
		<styleUrl>#__managed_style_3702FB7ABE41C0FD77D0</styleUrl>
		<Point>
			<coordinates>10.47488708348142,43.59568548881924,14.26218342396271</coordinates>
		</Point>
	</Placemark>
	<Placemark id="0D4F245AFD419D79C210">
		<name>C [02] ARL</name>
		<description><![CDATA[<div>Colonnina e-distribuzione<br></div><div>Apparato aggiuntivo<br></div><div>Tombino Telecom datato<br></div>]]></description>
		<LookAt>
			<longitude>10.47586651960723</longitude>
			<latitude>43.59133064093918</latitude>
			<altitude>24.8534072340138</altitude>
			<heading>3.488453153961721</heading>
			<tilt>22.25852995961843</tilt>
			<gx:fovy>35</gx:fovy>
			<range>168.5667978957099</range>
			<altitudeMode>absolute</altitudeMode>
		</LookAt>
		<styleUrl>#__managed_style_2B1139CF4A41C0FD77D0</styleUrl>
		<Point>
			<coordinates>10.47552860055279,43.5910956334903,25.83234360459762</coordinates>
		</Point>
	</Placemark>
	<Placemark id="0F23EA90BA419D7FECB9">
		<name>C [04] ARL</name>
		<description><![CDATA[<div>Solo ARL<br></div>]]></description>
		<LookAt>
			<longitude>10.47408325817087</longitude>
			<latitude>43.58860427005781</latitude>
			<altitude>22.7097238180401</altitude>
			<heading>-24.04117433316009</heading>
			<tilt>18.9754859052477</tilt>
			<gx:fovy>35</gx:fovy>
			<range>42.72616320258294</range>
			<altitudeMode>absolute</altitudeMode>
		</LookAt>
		<styleUrl>#__managed_style_2B1139CF4A41C0FD77D0</styleUrl>
		<Point>
			<coordinates>10.47395312105487,43.58858299683062,21.44117700583113</coordinates>
		</Point>
	</Placemark>
	<Placemark id="0F8841432F419D838E0B">
		<name>C [9605] ARL</name>
		<description><![CDATA[<div>Solo ARL<br></div>]]></description>
		<LookAt>
			<longitude>10.47200666317034</longitude>
			<latitude>43.58846021714994</latitude>
			<altitude>24.59379595647328</altitude>
			<heading>-174.8321910951265</heading>
			<tilt>0.2054215867862803</tilt>
			<gx:fovy>35</gx:fovy>
			<range>121.131047905219</range>
			<altitudeMode>absolute</altitudeMode>
		</LookAt>
		<styleUrl>#__managed_style_2B1139CF4A41C0FD77D0</styleUrl>
		<Point>
			<coordinates>10.4722128985901,43.58852553732246,22.99642316365405</coordinates>
		</Point>
	</Placemark>
	<Placemark id="030934D8B9419D824C48">
		<name>C [9606] ARL</name>
		<description><![CDATA[<div>Colonnina e-distribuzione<br></div>]]></description>
		<LookAt>
			<longitude>10.47340578237299</longitude>
			<latitude>43.5885169093362</latitude>
			<altitude>26.8050783334338</altitude>
			<heading>167.2032950400495</heading>
			<tilt>0</tilt>
			<gx:fovy>35</gx:fovy>
			<range>48.98218259737405</range>
			<altitudeMode>absolute</altitudeMode>
		</LookAt>
		<styleUrl>#__managed_style_2B1139CF4A41C0FD77D0</styleUrl>
		<Point>
			<coordinates>10.47337010798103,43.58851024915857,26.38322421545164</coordinates>
		</Point>
	</Placemark>
	<Placemark id="0C1639DB3D41C037B01F">
		<name>C [07] ARL</name>
		<description><![CDATA[<div>Colonnina e-distribuzione</div>]]></description>
		<LookAt>
			<longitude>10.47142363889871</longitude>
			<latitude>43.59337982523525</latitude>
			<altitude>14.77029917978083</altitude>
			<heading>193.6762615912674</heading>
			<tilt>0</tilt>
			<gx:fovy>30</gx:fovy>
			<range>87.18022802623636</range>
			<altitudeMode>absolute</altitudeMode>
		</LookAt>
		<styleUrl>#__managed_style_0DCCD72A2941C0FD77CE</styleUrl>
		<Point>
			<coordinates>10.47150193989438,43.59338149812601,13.02722648025734</coordinates>
		</Point>
	</Placemark>
	<Placemark id="051EB54D5C419D7EA6D4">
		<name>C [08] ARL</name>
		<description><![CDATA[<div>Solo ARL<br></div><div><b><i>NUMERO DA VERIFICARE IRL</i></b><br></div>]]></description>
		<LookAt>
			<longitude>10.47605328826353</longitude>
			<latitude>43.5874390493034</latitude>
			<altitude>47.1555642279136</altitude>
			<heading>-24.04080935554134</heading>
			<tilt>18.97554447727877</tilt>
			<gx:fovy>35</gx:fovy>
			<range>62.75627064409491</range>
			<altitudeMode>absolute</altitudeMode>
		</LookAt>
		<styleUrl>#__managed_style_2B1139CF4A41C0FD77D0</styleUrl>
		<Point>
			<coordinates>10.47610869231274,43.58738892744724,47.03281905686042</coordinates>
		</Point>
	</Placemark>
	<Placemark id="06A6E2BD72419DA42506">
		<name>V [01] ARL</name>
		<description><![CDATA[<div>Piccolo apparato e-distribuzione appeso allo SLAM</div>]]></description>
		<LookAt>
			<longitude>10.4640254435173</longitude>
			<latitude>43.61596375381316</latitude>
			<altitude>6.983497515387911</altitude>
			<heading>260.6222810185236</heading>
			<tilt>0</tilt>
			<gx:fovy>35</gx:fovy>
			<range>74.08701672710778</range>
			<altitudeMode>absolute</altitudeMode>
		</LookAt>
		<styleUrl>#__managed_style_2B1139CF4A41C0FD77D0</styleUrl>
		<Point>
			<coordinates>10.46393924023852,43.615979215896,8.942025276959534</coordinates>
		</Point>
	</Placemark>
	<Placemark id="0698C7718E419DA0FA44">
		<name>V [02] ARL</name>
		<description><![CDATA[<div>Colonnina e-distribuzione<br></div><div>Apparato aggiuntivo<br></div><div>Tombini TIM e INWIT</div>]]></description>
		<LookAt>
			<longitude>10.46575660201549</longitude>
			<latitude>43.61429401288137</latitude>
			<altitude>8.149781248064249</altitude>
			<heading>137.4303601572429</heading>
			<tilt>20.14108414239434</tilt>
			<gx:fovy>35</gx:fovy>
			<range>340.5757706051372</range>
			<altitudeMode>absolute</altitudeMode>
		</LookAt>
		<styleUrl>#__managed_style_2B1139CF4A41C0FD77D0</styleUrl>
		<Point>
			<coordinates>10.46470627817781,43.61415840630968,8.255236504342294</coordinates>
		</Point>
	</Placemark>
	<Placemark id="0ECF9F5C0F419DA225A1">
		<name>V [03] ARL</name>
		<description><![CDATA[<div>Colonnina e-distribuzione</div>]]></description>
		<LookAt>
			<longitude>10.4629293314401</longitude>
			<latitude>43.61128440554157</latitude>
			<altitude>10.2677005710592</altitude>
			<heading>-74.53142659514765</heading>
			<tilt>0.1206384495683505</tilt>
			<gx:fovy>35</gx:fovy>
			<range>113.3717670795522</range>
			<altitudeMode>absolute</altitudeMode>
		</LookAt>
		<styleUrl>#__managed_style_2B1139CF4A41C0FD77D0</styleUrl>
		<Point>
			<coordinates>10.46276627108424,43.61140065512943,7.202625748783409</coordinates>
		</Point>
	</Placemark>
	<Placemark id="0305AC62A2419D9EC684">
		<name>V [04] ARL</name>
		<description><![CDATA[<div>Colonnina e-distribuzione</div>]]></description>
		<LookAt>
			<longitude>10.46710043097888</longitude>
			<latitude>43.61127306225383</latitude>
			<altitude>9.374835808591977</altitude>
			<heading>-49.1755706209078</heading>
			<tilt>3.506405490188474</tilt>
			<gx:fovy>35</gx:fovy>
			<range>94.02600433393673</range>
			<altitudeMode>absolute</altitudeMode>
		</LookAt>
		<styleUrl>#__managed_style_2B1139CF4A41C0FD77D0</styleUrl>
		<Point>
			<coordinates>10.46703759131137,43.61142266059468,9.351399109304793</coordinates>
		</Point>
	</Placemark>
	<Placemark id="0047495E12419D9FD2E4">
		<name>V [05] ARL</name>
		<description><![CDATA[<div>Solo ARL</div><div>NUOVO DAL 2025<br></div>]]></description>
		<LookAt>
			<longitude>10.46813870580639</longitude>
			<latitude>43.60896102537613</latitude>
			<altitude>16.12491760859428</altitude>
			<heading>-49.17469479733042</heading>
			<tilt>3.506401060473639</tilt>
			<gx:fovy>35</gx:fovy>
			<range>85.97310388518054</range>
			<altitudeMode>absolute</altitudeMode>
		</LookAt>
		<styleUrl>#__managed_style_2B1139CF4A41C0FD77D0</styleUrl>
		<Point>
			<coordinates>10.46820504166604,43.60895368604701,9.856807281844972</coordinates>
		</Point>
	</Placemark>
	<Placemark id="0E749B0B68419D9E6D0F">
		<name>V [06] ARL</name>
		<description><![CDATA[<div>Colonnina e-distribuzione</div>]]></description>
		<LookAt>
			<longitude>10.46945976245854</longitude>
			<latitude>43.60786384175779</latitude>
			<altitude>9.196774224050383</altitude>
			<heading>-89.47386434582545</heading>
			<tilt>0.1769562837131852</tilt>
			<gx:fovy>35</gx:fovy>
			<range>236.279795172486</range>
			<altitudeMode>absolute</altitudeMode>
		</LookAt>
		<styleUrl>#__managed_style_2B1139CF4A41C0FD77D0</styleUrl>
		<Point>
			<coordinates>10.4691031952583,43.60771225916528,20.0587460788166</coordinates>
		</Point>
	</Placemark>
	<Placemark id="0EE4D73D73419DA346CF">
		<name>V [07] ARL</name>
		<description><![CDATA[<div>Colonnina e-distribuzione</div>]]></description>
		<LookAt>
			<longitude>10.45955434336572</longitude>
			<latitude>43.60848805250724</latitude>
			<altitude>20.29082882335836</altitude>
			<heading>155.7570609569958</heading>
			<tilt>1.136245906785847</tilt>
			<gx:fovy>35</gx:fovy>
			<range>51.36984037862021</range>
			<altitudeMode>absolute</altitudeMode>
		</LookAt>
		<styleUrl>#__managed_style_2B1139CF4A41C0FD77D0</styleUrl>
		<Point>
			<coordinates>10.45943579746409,43.60849035409097,8.099397291975919</coordinates>
		</Point>
	</Placemark>
	<Placemark id="086A77D7C1419DA6C13B">
		<name>V [08] ARL</name>
		<description><![CDATA[<div>Colonnina e-distribuzione</div>]]></description>
		<LookAt>
			<longitude>10.44062218716232</longitude>
			<latitude>43.60514153709986</latitude>
			<altitude>10.84866456143165</altitude>
			<heading>260.6061690292034</heading>
			<tilt>0</tilt>
			<gx:fovy>35</gx:fovy>
			<range>114.2296395646554</range>
			<altitudeMode>absolute</altitudeMode>
		</LookAt>
		<styleUrl>#__managed_style_2B1139CF4A41C0FD77D0</styleUrl>
		<Point>
			<coordinates>10.4404506914578,43.60514303706348,6.191431887802152</coordinates>
		</Point>
	</Placemark>
	<Placemark id="073CCE441A419DEDF933">
		<name>S [0?] ARLO</name>
		<LookAt>
			<longitude>10.35621112080474</longitude>
			<latitude>43.59067581246553</latitude>
			<altitude>9.140642120051496</altitude>
			<heading>5.849535331023148</heading>
			<tilt>0</tilt>
			<gx:fovy>35</gx:fovy>
			<range>84.19217771117475</range>
			<altitudeMode>absolute</altitudeMode>
		</LookAt>
		<styleUrl>#__managed_style_0A6B0919F641C0FD77D1</styleUrl>
		<Point>
			<coordinates>10.35621954253915,43.59068745492593,9.177559218953812</coordinates>
		</Point>
	</Placemark>
	<Placemark id="0B539CBC0B41A1D9DE66">
		<name>S [02] ARL</name>
		<description><![CDATA[<div>Con apparato aggiuntivo</div>]]></description>
		<LookAt>
			<longitude>10.35060236170829</longitude>
			<latitude>43.59239065968221</latitude>
			<altitude>2.594020394422798</altitude>
			<heading>22.93686795488712</heading>
			<tilt>0</tilt>
			<gx:fovy>35</gx:fovy>
			<range>67.42346849997375</range>
			<altitudeMode>absolute</altitudeMode>
		</LookAt>
		<styleUrl>#__managed_style_0DCCD72A2941C0FD77CE</styleUrl>
		<Point>
			<coordinates>10.35056806250987,43.59243810822641,2.475729849321566</coordinates>
		</Point>
	</Placemark>
	<Placemark id="0263F1596941C03C8160">
		<name>S [04] ARL</name>
		<description><![CDATA[<div>Colonnina e-distribuzione</div>]]></description>
		<LookAt>
			<longitude>10.35377466715652</longitude>
			<latitude>43.58915567293858</latitude>
			<altitude>14.93027758545787</altitude>
			<heading>-97.95018138079961</heading>
			<tilt>0.09037096574810492</tilt>
			<gx:fovy>30</gx:fovy>
			<range>139.3653636399359</range>
			<altitudeMode>absolute</altitudeMode>
		</LookAt>
		<styleUrl>#__managed_style_0DCCD72A2941C0FD77CE</styleUrl>
		<Point>
			<coordinates>10.35390675834629,43.58933840791399,5.353233033977052</coordinates>
		</Point>
	</Placemark>
	<Placemark id="08BC1C303941A1DD1397">
		<name>S [05] ARL</name>
		<description><![CDATA[<div>Solo ARL</div>]]></description>
		<LookAt>
			<longitude>10.35287935943994</longitude>
			<latitude>43.59120809616553</latitude>
			<altitude>2.738287509862929</altitude>
			<heading>22.93880339107385</heading>
			<tilt>0</tilt>
			<gx:fovy>35</gx:fovy>
			<range>367.7078160796736</range>
			<altitudeMode>absolute</altitudeMode>
		</LookAt>
		<styleUrl>#__managed_style_0DCCD72A2941C0FD77CE</styleUrl>
		<Point>
			<coordinates>10.35337685775456,43.59035875596269,12.50997311857619</coordinates>
		</Point>
	</Placemark>
	<Placemark id="0E5AD376F741A1E1369B">
		<name>S [07] ARL</name>
		<description><![CDATA[<div>Solo ARL</div>]]></description>
		<LookAt>
			<longitude>10.3491556305262</longitude>
			<latitude>43.58942946398797</latitude>
			<altitude>2.689287260983251</altitude>
			<heading>304.3561117395951</heading>
			<tilt>0</tilt>
			<gx:fovy>35</gx:fovy>
			<range>37.59936224299964</range>
			<altitudeMode>absolute</altitudeMode>
		</LookAt>
		<styleUrl>#__managed_style_0DCCD72A2941C0FD77CE</styleUrl>
		<Point>
			<coordinates>10.34911678357854,43.58946193469468,2.745698482184389</coordinates>
		</Point>
	</Placemark>
	<Placemark id="0D98E9743941A1DA3CA8">
		<name>Coppie di corrugati scoperti</name>
		<LookAt>
			<longitude>10.34996451863148</longitude>
			<latitude>43.59145488714253</latitude>
			<altitude>7.42184619462011</altitude>
			<heading>22.93674749892452</heading>
			<tilt>0</tilt>
			<gx:fovy>35</gx:fovy>
			<range>91.93954525077061</range>
			<altitudeMode>absolute</altitudeMode>
		</LookAt>
		<styleUrl>#__managed_style_542F922DD441C0FD77D0</styleUrl>
		<Point>
			<coordinates>10.35000466489481,43.59134055302148,2.426493216938457</coordinates>
		</Point>
	</Placemark>
	<Placemark id="017CFF11F041A1FE2121">
		<name>G [01] ARL</name>
		<description><![CDATA[<div>Solo ARL<br></div><div>Tombini TIM vicini</div>]]></description>
		<LookAt>
			<longitude>10.40803172271437</longitude>
			<latitude>43.59776142680494</latitude>
			<altitude>12.88588607854672</altitude>
			<heading>10.93552576847395</heading>
			<tilt>0</tilt>
			<gx:fovy>35</gx:fovy>
			<range>124.0013270435338</range>
			<altitudeMode>absolute</altitudeMode>
		</LookAt>
		<styleUrl>#__managed_style_0DCCD72A2941C0FD77CE</styleUrl>
		<Point>
			<coordinates>10.40831362933121,43.59771334510327,4.263604324987583</coordinates>
		</Point>
	</Placemark>
	<Placemark id="0D6146352741A1FCE21E">
		<name>G [02] ARL</name>
		<description><![CDATA[<div>Colonnina e-distribuzione</div>]]></description>
		<LookAt>
			<longitude>10.40599011816186</longitude>
			<latitude>43.59746831139272</latitude>
			<altitude>11.61193245893925</altitude>
			<heading>29.46079087818764</heading>
			<tilt>0</tilt>
			<gx:fovy>35</gx:fovy>
			<range>136.1776904559883</range>
			<altitudeMode>absolute</altitudeMode>
		</LookAt>
		<styleUrl>#__managed_style_0DCCD72A2941C0FD77CE</styleUrl>
		<Point>
			<coordinates>10.40591055655146,43.5973720237515,4.917318282778012</coordinates>
		</Point>
	</Placemark>
	<Placemark id="03D89618D341A1FAF659">
		<name>G [0?] ARL</name>
		<description><![CDATA[<div>Alimentazione e-distribuzione appesa allo SLAM</div><div><b><i>Da verificare numero IRL</i></b><br></div>]]></description>
		<LookAt>
			<longitude>10.39193981415225</longitude>
			<latitude>43.5965773295419</latitude>
			<altitude>3.206591572641113</altitude>
			<heading>101.3911809635427</heading>
			<tilt>0</tilt>
			<gx:fovy>35</gx:fovy>
			<range>116.0344096940025</range>
			<altitudeMode>absolute</altitudeMode>
		</LookAt>
		<styleUrl>#__managed_style_0DCCD72A2941C0FD77CE</styleUrl>
		<Point>
			<coordinates>10.39175703265911,43.59665027670538,2.78492239871732</coordinates>
		</Point>
	</Placemark>
	<Placemark id="01B27264D9419D7C94C9">
		<name>Centrale Comunale</name>
		<description><![CDATA[<div>XGS-PON (10 gigabit)<br></div><div>Tombini Telecom, TIM e Fastweb (quest'ultimo per allacciare Casa di Riposo Santa Caterina)<br></div>]]></description>
		<LookAt>
			<longitude>10.47728125542224</longitude>
			<latitude>43.5878348697434</latitude>
			<altitude>43.21090867544154</altitude>
			<heading>-11.41732871338099</heading>
			<tilt>0.2106551528310472</tilt>
			<gx:fovy>35</gx:fovy>
			<range>68.3784493319945</range>
			<altitudeMode>absolute</altitudeMode>
		</LookAt>
		<styleUrl>#__managed_style_1BC4D104FA41C0FD77D0</styleUrl>
		<Point>
			<coordinates>10.47720127220835,43.58784127435811,47.45760125512244</coordinates>
		</Point>
	</Placemark>
	<Placemark id="01700D6671419DAEA488">
		<name>Centrale di Frazione</name>
		<LookAt>
			<longitude>10.47096600047286</longitude>
			<latitude>43.6085371869249</latitude>
			<altitude>8.606963466793792</altitude>
			<heading>75.26916690514389</heading>
			<tilt>0</tilt>
			<gx:fovy>35</gx:fovy>
			<range>500.0417798130366</range>
			<altitudeMode>absolute</altitudeMode>
		</LookAt>
		<styleUrl>#__managed_style_1BC4D104FA41C0FD77D0</styleUrl>
		<Point>
			<coordinates>10.47125879427716,43.60833893439388,17.09859671426181</coordinates>
		</Point>
	</Placemark>
	<Placemark id="05ACF8364E419DAFCD6E">
		<name>Centrale di Frazione</name>
		<LookAt>
			<longitude>10.40700118131422</longitude>
			<latitude>43.59639321426919</latitude>
			<altitude>5.807910603570701</altitude>
			<heading>30.35177433707048</heading>
			<tilt>0.2702131546023824</tilt>
			<gx:fovy>35</gx:fovy>
			<range>163.6113460309934</range>
			<altitudeMode>absolute</altitudeMode>
		</LookAt>
		<styleUrl>#__managed_style_1BC4D104FA41C0FD77D0</styleUrl>
		<Point>
			<coordinates>10.40684922916597,43.59622804332577,8.213432464352117</coordinates>
		</Point>
	</Placemark>
	<Placemark id="0BCA63C363419DB26088">
		<name>Centrale di Frazione</name>
		<LookAt>
			<longitude>10.4383598742897</longitude>
			<latitude>43.57748038787638</latitude>
			<altitude>73.57208293328326</altitude>
			<heading>348.9306765480285</heading>
			<tilt>0</tilt>
			<gx:fovy>35</gx:fovy>
			<range>54.8263273599423</range>
			<altitudeMode>absolute</altitudeMode>
		</LookAt>
		<styleUrl>#__managed_style_1BC4D104FA41C0FD77D0</styleUrl>
		<Point>
			<coordinates>10.43835594492575,43.57752488130696,67.04295934452746</coordinates>
		</Point>
	</Placemark>
	<Placemark id="09ECE9F1E7419DB39FB6">
		<name>Centrale di Frazione</name>
		<LookAt>
			<longitude>10.4423333</longitude>
			<latitude>43.5381667</latitude>
			<altitude>0</altitude>
			<heading>0</heading>
			<tilt>0</tilt>
			<gx:fovy>35</gx:fovy>
			<range>740.6460948752846</range>
			<altitudeMode>relativeToGround</altitudeMode>
		</LookAt>
		<styleUrl>#__managed_style_650404BC3941C0FD77D0</styleUrl>
		<Point>
			<extrude>1</extrude>
			<coordinates>10.4423333,43.5381667,0</coordinates>
		</Point>
	</Placemark>
	<Placemark id="057A74F77A419DB426D9">
		<name>Centrale di Frazione</name>
		<LookAt>
			<longitude>10.4573333</longitude>
			<latitude>43.5285278</latitude>
			<altitude>0</altitude>
			<heading>0</heading>
			<tilt>0</tilt>
			<gx:fovy>35</gx:fovy>
			<range>740.7751236341041</range>
			<altitudeMode>relativeToGround</altitudeMode>
		</LookAt>
		<styleUrl>#__managed_style_650404BC3941C0FD77D0</styleUrl>
		<Point>
			<extrude>1</extrude>
			<coordinates>10.4573333,43.5285278,0</coordinates>
		</Point>
	</Placemark>
	<Placemark id="03B291C7F3419DB5DFC8">
		<name>Centrale di Frazione</name>
		<LookAt>
			<longitude>10.3472222</longitude>
			<latitude>43.5862222</latitude>
			<altitude>0</altitude>
			<heading>0</heading>
			<tilt>0</tilt>
			<gx:fovy>35</gx:fovy>
			<range>740.0025217691492</range>
			<altitudeMode>relativeToGround</altitudeMode>
		</LookAt>
		<styleUrl>#__managed_style_650404BC3941C0FD77D0</styleUrl>
		<Point>
			<extrude>1</extrude>
			<coordinates>10.3472222,43.58622219999999,0</coordinates>
		</Point>
	</Placemark>
	<Placemark id="0F80C4A9C341A1D76E6B">
		<name>Tratta Stagno (Maggio 2026-Giugno 2026)</name>
		<LookAt>
			<longitude>10.35095472448589</longitude>
			<latitude>43.59322902316453</latitude>
			<altitude>8.866010757969425</altitude>
			<heading>22.93415676336189</heading>
			<tilt>0</tilt>
			<gx:fovy>35</gx:fovy>
			<range>1060.041876830655</range>
			<altitudeMode>absolute</altitudeMode>
		</LookAt>
		<styleUrl>#__managed_style_488E8CE88C41C0FD77D0</styleUrl>
		<LineString>
			<coordinates>
				10.34860805168541,43.59168570855007,0 10.34871530348557,43.59161684076259,0 10.34947089697413,43.59142839913812,0 10.35081301330384,43.59108578486767,0 10.35301554837023,43.59054191465385,0 10.35388722390942,43.59028406877285,0 10.35437021845302,43.59090414532672,0 10.35554721694629,43.59053139737134,0 10.35572866233726,43.59049942240079,0 10.35731263237763,43.59088674173618,0 10.3574073966229,43.59123446568788,0 10.35740266273588,43.59219817019422,0 10.35658429951355,43.59280595472113,0 10.35641291843644,43.59292700784654,0 10.3559755949213,43.59334842255198,0 10.35521038144728,43.59374429133647,0 10.35472327086319,43.59393131486546,0 10.35394857311773,43.59452270927255,0 10.35301341759659,43.59453977893116,0 10.35133431781773,43.59441426182753,0 10.35099772708209,43.5943954423303,0 10.35071376686663,43.59415955816775,0 10.34998730759783,43.59373529343075,0 10.34906962979244,43.59273694394806,0 10.34886530844075,43.59244958418242,0 
			</coordinates>
		</LineString>
	</Placemark>
	<Placemark id="06D81465DD41A1D7D42C">
		<name>Tratta Stagno (Maggio 2026-Giugno 2026)</name>
		<LookAt>
			<longitude>10.35036207496657</longitude>
			<latitude>43.59242600997794</latitude>
			<altitude>2.574077790386169</altitude>
			<heading>22.93392977305238</heading>
			<tilt>0</tilt>
			<gx:fovy>35</gx:fovy>
			<range>728.6932012410398</range>
			<altitudeMode>absolute</altitudeMode>
		</LookAt>
		<styleUrl>#__managed_style_488E8CE88C41C0FD77D0</styleUrl>
		<LineString>
			<coordinates>
				10.35133077620461,43.5942855535939,0 10.35145371846127,43.59409097219002,0 10.35092628743893,43.59296145829956,0 10.35016594483461,43.59133917544065,0 
			</coordinates>
		</LineString>
	</Placemark>
	<Placemark id="0C88D2EDB941A20C5424">
		<name>INFRATEL</name>
		<description><![CDATA[<div>TORSFNUGOLANUOVA<br></div><div>Un percorso con un misto di palifica, cavidotto e mini trincea per rilegare in fibra ottica le centrali Fibercop usando il progetto del MISR 2014-2020<br></div>]]></description>
		<LookAt>
			<longitude>10.44147988441446</longitude>
			<latitude>43.57742379949756</latitude>
			<altitude>47.6978306669585</altitude>
			<heading>4.223076536908568</heading>
			<tilt>0</tilt>
			<gx:fovy>35</gx:fovy>
			<range>852.585581978783</range>
			<altitudeMode>absolute</altitudeMode>
		</LookAt>
		<styleUrl>#__managed_style_3B8E37096A41C0FD77D1</styleUrl>
		<LineString>
			<coordinates>
				10.40667471840242,43.59626367227248,0 10.40660675293724,43.5961630570386,0 10.40672853664054,43.59607409909038,0 10.40693945203579,43.5960507581709,0 10.40707096939362,43.59613291219433,0 10.40751985965921,43.59671475124102,0 10.40666727145702,43.59703610627353,0 10.40697773317523,43.59743557603248,0 10.40698968669504,43.59752127959776,0 10.40851659533281,43.59773788173056,0 10.41033754008815,43.59796238338347,0 10.41157501044967,43.59807227360464,0 10.41371120999985,43.59802612683337,0 10.41568007816015,43.59791417336469,0 10.41578586125376,43.59784487016073,0 10.41813653180958,43.59770822705618,0 10.41908973399579,43.59759766105935,0 10.42185334786452,43.59750026011881,0 10.42286317702725,43.59752950035724,0 10.42572892318566,43.59746678147755,0 10.42844308170899,43.59743509452544,0 10.43147825994284,43.59734788841899,0 10.43244139605686,43.59734773706571,0 10.43324167305455,43.59745358975712,0 10.43720499628412,43.59836611053591,0 10.43882547298476,43.59873581084392,0 10.44127451467681,43.59933622900275,0 10.4440323667891,43.60001347721176,0 10.44410355357693,43.59986872247458,0 10.44418702910694,43.59986587330235,0 10.44411688445311,43.59810590847485,0 10.44422297408595,43.59796679338766,0 10.44484626956874,43.59774308336394,0 10.44511298395649,43.59763990306043,0 10.4455369563599,43.59726221221646,0 10.44560168873955,43.59712148900214,0 10.44605425233349,43.59362979416483,0 10.44607354426393,43.59290953995367,0 10.44537603196837,43.58830959668619,0 10.44529748956714,43.58731729762854,0 10.44517779599591,43.58710660850814,0 10.44403827122211,43.58599861815793,0 10.4437279392072,43.58551087875627,0 10.44370386772463,43.58528019565792,0 10.44385807717988,43.58467805629225,0 10.44417428007073,43.58346981864464,0 10.44472077275853,43.58290982577593,0 10.44532096047786,43.58263109817714,0 10.44419477273879,43.58028473899358,0 10.44499494874503,43.57924551259086,0 10.4448047275098,43.57903864146749,0 10.44434217769639,43.57870221248658,0 10.44351924210402,43.57810197423402,0 10.4430653042732,43.57788931621378,0 10.44244329039499,43.57772202287114,0 10.44222327626552,43.57759041121694,0 10.44195759610487,43.5771618512735,0 10.44173585580938,43.5770522595778,0 10.44122732128072,43.57709422471643,0 10.44089064256203,43.57706817414734,0 10.44050227230516,43.57693712410234,0 10.43989702436103,43.57690976759687,0 10.43957206910217,43.57687292647527,0 10.43947797824163,43.57683365720801,0 10.43939265268055,43.57674552180792,0 10.43893570540861,43.57672603527591,0 10.4386958150986,43.57673597880336,0 10.43845977377443,43.57683295739167,0 10.43831158965817,43.57707125840476,0 10.43833571501994,43.57728313784801,0 10.43835567287565,43.57744893714069,0 10.43825396413374,43.57752365826413,0 
			</coordinates>
		</LineString>
	</Placemark>
	<Placemark id="02442DD76E41BFC6C1C1">
		<name>Cantiere 1 (14/09-02/10)</name>
		<LookAt>
			<longitude>10.47397354201779</longitude>
			<latitude>43.59295999202532</latitude>
			<altitude>22.28347950568194</altitude>
			<heading>0</heading>
			<tilt>0</tilt>
			<gx:fovy>35</gx:fovy>
			<range>867.5584038755915</range>
			<altitudeMode>absolute</altitudeMode>
		</LookAt>
		<styleUrl>#__managed_style_3702FB7ABE41C0FD77D0</styleUrl>
		<LineString>
			<coordinates>
				10.47494356238502,43.59370464618144,0 10.47453740896556,43.59346048013433,0 10.47431437200822,43.59340014500267,0 10.47388600079308,43.59344373942147,0 
			</coordinates>
		</LineString>
	</Placemark>
	<Placemark id="099D51459541BFC79191">
		<name>Cantiere 1 (14/09-02/10)</name>
		<LookAt>
			<longitude>10.47397354201779</longitude>
			<latitude>43.59295999202532</latitude>
			<altitude>22.28347950568194</altitude>
			<heading>0</heading>
			<tilt>0</tilt>
			<gx:fovy>35</gx:fovy>
			<range>867.5584038755915</range>
			<altitudeMode>absolute</altitudeMode>
		</LookAt>
		<styleUrl>#__managed_style_3702FB7ABE41C0FD77D0</styleUrl>
		<LineString>
			<coordinates>
				10.47364980632463,43.59293592875652,0 10.47280350643834,43.59300093710404,0 10.47264806703715,43.59295697987916,0 10.47257171206025,43.59253187687172,0 10.47265552399968,43.59246233463369,0 10.47434508137137,43.59226486703945,0 10.47439015565228,43.59212718873794,0 10.47425834702411,43.59179682142434,0 10.47406425312469,43.59150270476955,0 10.47226567493413,43.59164739013957,0 
			</coordinates>
		</LineString>
	</Placemark>
	<Placemark id="08DB97EDC341BFC840B3">
		<name>Cantiere 1 (14/09-02/10)</name>
		<LookAt>
			<longitude>10.47575187688493</longitude>
			<latitude>43.59342488349188</latitude>
			<altitude>20.35534211081909</altitude>
			<heading>0</heading>
			<tilt>0</tilt>
			<gx:fovy>35</gx:fovy>
			<range>869.4865020111322</range>
			<altitudeMode>absolute</altitudeMode>
		</LookAt>
		<styleUrl>#__managed_style_3702FB7ABE41C0FD77D0</styleUrl>
		<LineString>
			<coordinates>
				10.47540279487347,43.59382100949325,0 10.47559641390396,43.59378364741919,0 10.4760932698343,43.59352775196442,0 10.47637230256007,43.59337598787494,0 10.47795016462081,43.5932339866072,0 10.47875118172486,43.59352198066757,0 
			</coordinates>
		</LineString>
	</Placemark>
	<Placemark id="0B6DD449B041BFC99520">
		<name>Cantiere 1 (14/09-02/10)</name>
		<LookAt>
			<longitude>10.47760866200569</longitude>
			<latitude>43.59411595999735</latitude>
			<altitude>17.87835798188549</altitude>
			<heading>0</heading>
			<tilt>0</tilt>
			<gx:fovy>35</gx:fovy>
			<range>447.0714161050273</range>
			<altitudeMode>absolute</altitudeMode>
		</LookAt>
		<styleUrl>#__managed_style_3702FB7ABE41C0FD77D0</styleUrl>
		<LineString>
			<coordinates>
				10.47708928226216,43.59335440023948,0 10.47710367917496,43.59383866054117,0 10.47764269839388,43.59439578771543,0 10.47782560221626,43.5946593769997,0 10.47790277993174,43.59454997081818,0 10.47799171608522,43.5942699853034,0 10.47748165601502,43.59381383604362,0 10.47743065825687,43.59374472590288,0 10.47745314080967,43.59359569016242,0 10.47758105343991,43.59355582720536,0 10.47774643065448,43.5933025016189,0 
			</coordinates>
		</LineString>
	</Placemark>
	<Placemark id="08927D586B41BFCD66AB">
		<name>Area Coperta</name>
		<LookAt>
			<longitude>10.47594178900568</longitude>
			<latitude>43.59175486335587</latitude>
			<altitude>24.55865301339617</altitude>
			<heading>0</heading>
			<tilt>0</tilt>
			<gx:fovy>35</gx:fovy>
			<range>2965.34725387115</range>
			<altitudeMode>absolute</altitudeMode>
		</LookAt>
		<styleUrl>#__managed_style_0480488EB441C0FD77D0</styleUrl>
		<Polygon>
			<outerBoundaryIs>
				<LinearRing>
					<coordinates>
						10.47831432414463,43.59735208163775,0 10.47490750357298,43.59675147312176,0 10.47466668541113,43.59556130428247,0 10.47468023310989,43.59439838594344,0 10.47327833314074,43.59433503777191,0 10.47294144215967,43.59318356814519,0 10.47250916270062,43.59306344776069,0 10.4720713438114,43.59129190340349,0 10.4731781357431,43.5911484770516,0 10.47384506286727,43.59118849126861,0 10.47425296487598,43.59143928791674,0 10.47427449966845,43.59164571796145,0 10.47457583542979,43.59160275020295,0 10.47470512508781,43.59171212111392,0 10.47496088460995,43.59226878098354,0 10.47530974935544,43.59338896392185,0 10.47895911377472,43.59285745356519,0 10.47898569604331,43.59341666858663,0 10.47877726526569,43.59393653477233,0 10.47883620281119,43.59489865501001,0 10.47890732180501,43.5953543692146,0 10.47920091762252,43.59576463754848,0 10.47906864197645,43.59620127060812,0 10.47864936609254,43.59627519986242,0 10.47831432414463,43.59735208163775,0 
					</coordinates>
				</LinearRing>
			</outerBoundaryIs>
		</Polygon>
	</Placemark>
	<Placemark id="08A788CB5441BFCE4768">
		<name>Area NON Coperta</name>
		<LookAt>
			<longitude>10.47594178900568</longitude>
			<latitude>43.59175486335587</latitude>
			<altitude>24.55865301339617</altitude>
			<heading>0</heading>
			<tilt>0</tilt>
			<gx:fovy>35</gx:fovy>
			<range>2965.34725387115</range>
			<altitudeMode>absolute</altitudeMode>
		</LookAt>
		<styleUrl>#__managed_style_1E96C0AD7141C0FD77D1</styleUrl>
		<Polygon>
			<outerBoundaryIs>
				<LinearRing>
					<coordinates>
						10.47183416426679,43.59104267525296,0 10.47140388530703,43.59011351928879,0 10.47105371659059,43.58865713786496,0 10.47090893062489,43.5878390087556,0 10.47112285243186,43.58676685595341,0 10.47206957933863,43.58677276945699,0 10.47261863890103,43.58603597142741,0 10.47307794590598,43.5853090540325,0 10.47363048747304,43.58451735627266,0 10.4749637154381,43.58419051439952,0 10.4766994809309,43.58469545980665,0 10.47847449932393,43.5850790256994,0 10.47975681923361,43.58562365343471,0 10.47968279527069,43.58746593601117,0 10.47909575987571,43.58834787400259,0 10.47888894640984,43.589236363131,0 10.4780042910391,43.58969337167738,0 10.47774497499602,43.59067725045519,0 10.4775853640003,43.59182078145044,0 10.47734391181848,43.59224182187778,0 10.47737302448627,43.5931014554701,0 10.47533144125704,43.59335974906007,0 10.47473694037516,43.59119319332908,0 10.47433949944143,43.59106804886085,0 10.47359740411546,43.59027858251483,0 10.47183416426679,43.59104267525296,0 
					</coordinates>
				</LinearRing>
			</outerBoundaryIs>
		</Polygon>
	</Placemark>
	<Placemark id="0F1AE3268141C0558FB7">
		<name>Tratto Scuole Connesse</name>
		<description><![CDATA[<div>Realizzato nel 2025-2026, una decina di pozzetti marchio Fibercop (logo nuovo). Collega ARL 01 a Scuole medie e la nuova struttura di asilo nido "I cubi". Hanno fatto delle mini-trincee<br></div>]]></description>
		<LookAt>
			<longitude>10.47630361862888</longitude>
			<latitude>43.59779024419511</latitude>
			<altitude>14.66718811614409</altitude>
			<heading>8.482321068477599</heading>
			<tilt>7.439489808876339</tilt>
			<gx:fovy>35</gx:fovy>
			<range>133.0650315723688</range>
			<altitudeMode>absolute</altitudeMode>
		</LookAt>
		<styleUrl>#__managed_style_2669678F2541C0FD77D1</styleUrl>
		<LineString>
			<coordinates>
				10.47485729302696,43.59570146302148,0 10.4748307259534,43.59642904257531,0 10.47475401829078,43.59678248573223,0 10.47454135524676,43.59739134837353,0 10.47467811661603,43.59751182958806,0 10.47474676893672,43.59753146064567,0 10.47581455196354,43.5975884621442,0 10.4761453502041,43.59765941278491,0 10.47636543022417,43.59766806357309,0 
			</coordinates>
		</LineString>
	</Placemark>
	<Placemark id="03A16F4CC141C0599BFE">
		<name>Tratto Sanità Connesse</name>
		<description><![CDATA[<div>Realizzato nel 2026. Scavo per conto di Fastweb che ha vinto il bando per connettere le strutture sanitarie nel comune. Pozzetti Fastweb e mini-trincee. Collega la centrale Fibercop a Casa di Riposo Santa Caterina e USL Collesalvetti.&nbsp;</div>]]></description>
		<LookAt>
			<longitude>10.47866029911103</longitude>
			<latitude>43.58918977211022</latitude>
			<altitude>32.23082371916665</altitude>
			<heading>8.2202307259039</heading>
			<tilt>0</tilt>
			<gx:fovy>35</gx:fovy>
			<range>226.9127769896295</range>
			<altitudeMode>absolute</altitudeMode>
		</LookAt>
		<styleUrl>#__managed_style_2669678F2541C0FD77D1</styleUrl>
		<LineString>
			<coordinates>
				10.47723782945354,43.58782637372433,0 10.4773610138069,43.58783595827084,0 10.4774259030278,43.58783232853988,0 10.47764975494106,43.58754796561,0 10.47770396638678,43.5875722454253,0 10.47775122528103,43.58765418220317,0 10.4783759765353,43.58792964395463,0 10.47873210446485,43.58822458336739,0 10.47893120661991,43.58853829921652,0 10.479039467235,43.58883183414983,0 10.47891516254015,43.58893125315608,0 10.47876946928201,43.58901075839434,0 10.47863042185214,43.5892790040483,0 10.4783927226032,43.58942149529972,0 10.47835186827621,43.58939321867484,0 10.47842485890633,43.58925803572639,0 
			</coordinates>
		</LineString>
	</Placemark>
	<Placemark id="0F2DA583D541C062FA84">
		<name>Area Coperta Stagno</name>
		<LookAt>
			<longitude>10.35352531477823</longitude>
			<latitude>43.59263548179091</latitude>
			<altitude>2.902344926878466</altitude>
			<heading>8.143748108009644</heading>
			<tilt>0</tilt>
			<gx:fovy>35</gx:fovy>
			<range>1587.795536121412</range>
			<altitudeMode>absolute</altitudeMode>
		</LookAt>
		<styleUrl>#__managed_style_0480488EB441C0FD77D0</styleUrl>
		<Polygon>
			<outerBoundaryIs>
				<LinearRing>
					<coordinates>
						10.34853320303165,43.59156097686871,0 10.35277610994666,43.59048801463813,0 10.3526505359322,43.58743519779854,0 10.35406542123152,43.58749817886542,0 10.35465268792066,43.58659192091743,0 10.35588790349082,43.58697544732269,0 10.35619082816237,43.58749000380309,0 10.35557166527899,43.58922149886713,0 10.35565564239629,43.58978384484707,0 10.35692978079106,43.59038406576389,0 10.35764929682625,43.59067122381408,0 10.35762818595022,43.59234329260342,0 10.35613642212687,43.59423842288167,0 10.35408865542083,43.5946791528069,0 10.35117791180032,43.59468022229684,0 10.35090034225255,43.59437813149828,0 10.35024381501196,43.59424453232415,0 10.34950325627618,43.59364426633916,0 10.34892729879296,43.59259487355982,0 10.34853320303165,43.59156097686871,0 
					</coordinates>
				</LinearRing>
			</outerBoundaryIs>
		</Polygon>
	</Placemark>
	<Placemark id="07BBF594BC41C065D329">
		<name>Area NON Coperta Stagno</name>
		<LookAt>
			<longitude>10.35281713464746</longitude>
			<latitude>43.58909758016924</latitude>
			<altitude>26.83700028620691</altitude>
			<heading>8.151231565884725</heading>
			<tilt>0</tilt>
			<gx:fovy>35</gx:fovy>
			<range>1466.295408123988</range>
			<altitudeMode>absolute</altitudeMode>
		</LookAt>
		<styleUrl>#__managed_style_72F36AAE6441C0FD77D0</styleUrl>
		<Polygon>
			<outerBoundaryIs>
				<LinearRing>
					<coordinates>
						10.3476739894092,43.58988679697296,0 10.35010735202353,43.58930893785865,0 10.35090963003561,43.59087235812657,0 10.35388316746706,43.5902080130128,0 10.35611741182298,43.58979350958879,0 10.35605003178186,43.58973169875044,0 10.35597978554129,43.58967605083912,0 10.35591182352392,43.58961016035908,0 10.35584134703281,43.58953495781833,0 10.35576217906559,43.58947703182273,0 10.35604881295252,43.58896304597244,0 10.35622075441015,43.58848679226514,0 10.35668771884495,43.58731366296272,0 10.35467148913138,43.58686765737702,0 10.35474999191066,43.58625511594955,0 10.3555576859432,43.58644772129162,0 10.35637197016359,43.58652237063627,0 10.35692623253149,43.58650774267652,0 10.35740687837366,43.58661683520658,0 10.35772964798753,43.58822044701612,0 10.35704863041064,43.59012865362364,0 10.35727847569529,43.59027310844547,0 10.35718423483635,43.59043061191993,0 10.35690796887566,43.59035224647791,0 10.35666316355487,43.59023550667834,0 10.35632456287521,43.59011117969322,0 10.3552054447481,43.58991806425099,0 10.35501764163918,43.58991436304238,0 10.34852532193574,43.59153435247184,0 10.3476739894092,43.58988679697296,0 
					</coordinates>
				</LinearRing>
			</outerBoundaryIs>
		</Polygon>
	</Placemark>
	<Placemark id="0AD5AAF68741C10071CC">
		<name>Cantiere 2 (21/09-16/10)</name>
		<LookAt>
			<longitude>10.35525150848193</longitude>
			<latitude>43.58894946831555</latitude>
			<altitude>18.26557661804938</altitude>
			<heading>0</heading>
			<tilt>0</tilt>
			<gx:fovy>35</gx:fovy>
			<range>657.763721024312</range>
			<altitudeMode>absolute</altitudeMode>
		</LookAt>
		<styleUrl>#__managed_style_3702FB7ABE41C0FD77D0</styleUrl>
		<LineString>
			<coordinates>
				10.35389052326956,43.59022729698687,0 10.35490778514402,43.58997141866163,0 10.3550416346986,43.5898619854531,0 10.35538512807321,43.58920643698846,0 10.35567306350039,43.58853508832024,0 10.35604452762555,43.58761807664695,0 10.35606970388207,43.58741910390204,0 10.35596779262042,43.58729900108169,0 10.35573205316022,43.58728426561562,0 10.35534576870166,43.58743308490265,0 10.35499422998704,43.5877531995441,0 10.3546930630951,43.58840799288473,0 10.35459838786576,43.58863864478779,0 10.3544312191671,43.5886892765046,0 10.35423659866315,43.58869514809152,0 10.35417927629733,43.58926640419229,0 10.35515570989705,43.58950956872407,0 10.35521574502985,43.58944476278808,0 
			</coordinates>
		</LineString>
	</Placemark>
	<Placemark id="04D8D17C9141C10125EB">
		<name>Cantiere 2 (21/09-16/10)</name>
		<LookAt>
			<longitude>10.35544935938166</longitude>
			<latitude>43.58744357175065</latitude>
			<altitude>8.021382711957854</altitude>
			<heading>0</heading>
			<tilt>0</tilt>
			<gx:fovy>35</gx:fovy>
			<range>668.0078490997403</range>
			<altitudeMode>absolute</altitudeMode>
		</LookAt>
		<styleUrl>#__managed_style_3702FB7ABE41C0FD77D0</styleUrl>
		<LineString>
			<coordinates>
				10.35388295987024,43.59015894830006,0 10.35406688267233,43.58761564174289,0 10.35430179143639,43.58726528385459,0 10.35448118284483,43.58698887564383,0 
			</coordinates>
		</LineString>
	</Placemark>
	<Placemark id="01393CA83D41C1030753">
		<name>Cantiere 2 (21/09-16/10)</name>
		<LookAt>
			<longitude>10.35502175423013</longitude>
			<latitude>43.58819413211362</latitude>
			<altitude>15.40747753737118</altitude>
			<heading>0</heading>
			<tilt>0</tilt>
			<gx:fovy>35</gx:fovy>
			<range>792.203114705917</range>
			<altitudeMode>absolute</altitudeMode>
		</LookAt>
		<styleUrl>#__managed_style_3702FB7ABE41C0FD77D0</styleUrl>
		<LineString>
			<coordinates>
				10.35394203207994,43.58851577286455,0 10.35371416876303,43.58869450770677,0 10.35387333461452,43.58884115611766,0 10.3532592000069,43.58858614270715,0 10.35321261708328,43.58785581196885,0 10.3532591507029,43.5875657566061,0 10.35342585018318,43.58750955602729,0 10.35396757947023,43.58758693467999,0 
			</coordinates>
		</LineString>
	</Placemark>
</Document>
</kml>
